{"type":"FeatureCollection","features":[{"type":"Feature","id":"Solok","properties":{"kabupaten_kota":"Solok","sumber":"GADM 2.x Kabupaten Solok (Sumatera Barat)"},"geometry":{"type":"MultiPolygon","coordinates":[[[[100.6889,-0.5529],[100.68,-0.5883],[100.6874,-0.6221],[100.6982,-0.6312],[100.7447,-0.6399],[100.758,-0.6463],[100.7638,-0.6571],[100.7489,-0.6879],[100.7299,-0.71],[100.7308,-0.7219],[100.8481,-0.795],[100.9339,-0.817],[100.9909,-0.8506],[100.9907,-0.8623],[101.0004,-0.8756],[101.0198,-0.886],[101.0448,-0.8897],[101.069,-0.9469],[101.0551,-0.9627],[101.0538,-0.9732],[101.0699,-0.9846],[101.138,-0.9722],[101.1882,-1.0002],[101.1798,-1.0236],[101.1449,-1.0299],[101.1606,-1.0537],[101.1707,-1.121],[101.1832,-1.1517],[101.21,-1.1682],[101.2373,-1.2128],[101.2526,-1.2083],[101.2917,-1.1757],[101.3378,-1.1022],[101.3527,-1.0623],[101.3859,-1.0296],[101.4193,-1.0045],[101.4743,-1.0058],[101.4772,-1.0251],[101.4574,-1.0577],[101.4533,-1.085],[101.4033,-1.1362],[101.3966,-1.1516],[101.4082,-1.186],[101.439,-1.2083],[101.448,-1.2703],[101.4584,-1.2798],[101.4816,-1.2824],[101.5,-1.2993],[101.5305,-1.3],[101.533,-1.3053],[101.5161,-1.3132],[101.5188,-1.329],[101.5485,-1.3269],[101.5616,-1.3355],[101.5801,-1.3283],[101.5875,-1.3309],[101.6081,-1.3664],[101.6517,-1.37],[101.6606,-1.3762],[101.6616,-1.3898],[101.6282,-1.4072],[101.6143,-1.4221],[101.5955,-1.4501],[101.5335,-1.5152],[101.4624,-1.6282],[101.4155,-1.6712],[101.3196,-1.6932],[101.2678,-1.691],[101.2215,-1.7148],[101.1979,-1.6972],[101.1834,-1.6759],[101.1676,-1.6952],[101.1585,-1.6975],[101.1346,-1.6796],[101.0719,-1.6623],[101.0555,-1.6396],[101.0106,-1.6026],[101.0138,-1.5712],[100.9804,-1.5228],[100.9748,-1.4897],[100.9392,-1.4721],[100.9327,-1.4641],[100.9342,-1.4333],[100.9122,-1.4027],[100.8922,-1.3922],[100.8979,-1.3609],[100.8893,-1.333],[100.8659,-1.3209],[100.85,-1.303],[100.8301,-1.3065],[100.8197,-1.2913],[100.7972,-1.2772],[100.7909,-1.2655],[100.8017,-1.2332],[100.7863,-1.1902],[100.7705,-1.1586],[100.7519,-1.1579],[100.7458,-1.1518],[100.7419,-1.1202],[100.7303,-1.1036],[100.7076,-1.0916],[100.6368,-1.1194],[100.6341,-1.1067],[100.6168,-1.0932],[100.6184,-1.0606],[100.6145,-1.0567],[100.5812,-1.0718],[100.5466,-1.0264],[100.5423,-1.0126],[100.5508,-1.0026],[100.5511,-0.985],[100.5362,-0.9492],[100.5592,-0.9104],[100.5608,-0.8933],[100.5454,-0.8614],[100.5273,-0.8606],[100.5234,-0.8551],[100.5432,-0.8255],[100.5418,-0.8119],[100.5217,-0.7997],[100.5753,-0.7945],[100.6031,-0.7856],[100.6187,-0.7993],[100.6692,-0.8138],[100.6762,-0.8058],[100.6792,-0.7709],[100.6929,-0.7431],[100.6839,-0.7338],[100.6778,-0.7121],[100.6647,-0.704],[100.6406,-0.7125],[100.6192,-0.7341],[100.5615,-0.7609],[100.552,-0.7764],[100.5279,-0.7674],[100.5047,-0.7845],[100.5003,-0.7495],[100.4644,-0.7299],[100.4448,-0.7075],[100.4493,-0.6681],[100.4522,-0.6589],[100.5682,-0.622],[100.5809,-0.604],[100.5829,-0.5667],[100.5882,-0.5614],[100.6082,-0.564],[100.6374,-0.5366],[100.6615,-0.5496],[100.6889,-0.5529]]]]}},{"type":"Feature","id":"Pegunungan Bintang","properties":{"kabupaten_kota":"Pegunungan Bintang","sumber":"GADM 2.x Kabupaten Pegunungan Bintang (Papua)"},"geometry":{"type":"MultiPolygon","coordinates":[[[[141.0002,-3.8261],[141.0075,-3.8265],[141.0085,-3.9334],[141.0015,-3.9991],[141.0017,-4.9944],[140.9929,-5.3448],[140.8294,-5.3061],[140.3828,-5.2259],[140.1233,-5.1498],[140.0618,-5.0502],[140.0524,-5.0001],[140.0504,-4.9574],[140.0628,-4.8566],[140.0908,-4.7093],[140.1115,-4.5457],[140.0879,-4.4188],[140.0897,-4.3407],[140.1367,-4.0017],[140.141,-3.9078],[140.1371,-3.8111],[140.1084,-3.7844],[140.1615,-3.7845],[140.197,-3.7552],[140.2137,-3.7509],[140.3203,-3.7911],[140.5221,-3.7934],[140.613,-3.8125],[140.7464,-3.8223],[141.0002,-3.8261]]]]}},{"type":"Feature","id":"Bogor","properties":{"kabupaten_kota":"Bogor","sumber":"GADM 2.x Kabupaten Bogor (Jawa Barat)"},"geometry":{"type":"MultiPolygon","coordinates":[[[[107.1764,-6.4941],[107.1656,-6.4996],[107.1644,-6.5072],[107.2002,-6.5935],[107.2229,-6.5802],[107.2239,-6.6],[107.206,-6.6288],[107.1815,-6.6475],[107.1599,-6.6456],[107.1422,-6.6658],[107.0842,-6.6659],[107.0541,-6.6571],[107.0006,-6.6646],[106.9918,-6.67],[107.0013,-6.6902],[106.9901,-6.7032],[106.9809,-6.7413],[106.96,-6.7636],[106.952,-6.7566],[106.9422,-6.7597],[106.9228,-6.7806],[106.8997,-6.7852],[106.783,-6.7539],[106.7395,-6.7125],[106.6931,-6.7427],[106.6723,-6.7337],[106.6675,-6.742],[106.6314,-6.7536],[106.5941,-6.7455],[106.5832,-6.7246],[106.5735,-6.7214],[106.5451,-6.7517],[106.5253,-6.7575],[106.5256,-6.7666],[106.5115,-6.766],[106.4782,-6.7279],[106.4682,-6.7307],[106.4294,-6.6958],[106.4263,-6.6307],[106.4314,-6.5838],[106.4124,-6.5404],[106.4018,-6.5299],[106.3987,-6.5053],[106.4077,-6.473],[106.4041,-6.4591],[106.4049,-6.4531],[106.4358,-6.4527],[106.4554,-6.4315],[106.4583,-6.4218],[106.4531,-6.4098],[106.4439,-6.4066],[106.428,-6.3488],[106.4723,-6.3118],[106.4909,-6.3241],[106.4981,-6.3554],[106.5286,-6.355],[106.5309,-6.3383],[106.5163,-6.3333],[106.5133,-6.3288],[106.5195,-6.326],[106.5777,-6.3426],[106.5952,-6.3637],[106.7245,-6.3608],[106.7242,-6.3844],[106.7409,-6.4259],[106.7403,-6.4532],[106.7859,-6.4435],[106.8003,-6.4576],[106.8192,-6.4559],[106.8206,-6.4372],[106.8462,-6.4394],[106.851,-6.4609],[106.857,-6.4627],[106.862,-6.4529],[106.8754,-6.4497],[106.8936,-6.4136],[106.9096,-6.4147],[106.9101,-6.4044],[106.9276,-6.402],[106.9404,-6.3883],[106.9464,-6.3531],[106.9668,-6.303],[106.9803,-6.3146],[106.9718,-6.3676],[107.0072,-6.3903],[107.0521,-6.4049],[107.0789,-6.4354],[107.1764,-6.4941]]]]}},{"type":"Feature","id":"Sukabumi","properties":{"kabupaten_kota":"Sukabumi","sumber":"GADM 2.x Kabupaten Sukabumi (Jawa Barat)"},"geometry":{"type":"MultiPolygon","coordinates":[[[[106.96,-6.7636],[106.9882,-6.7946],[106.9972,-6.8348],[107.021,-6.8577],[107.0343,-6.8825],[107.0311,-6.8915],[107.0483,-6.9181],[107.0488,-6.945],[107.068,-6.9734],[107.045,-6.958],[107.0314,-6.9803],[107.0568,-7.0247],[107.0434,-7.04],[106.9937,-7.029],[106.9862,-7.0157],[106.9653,-7.0241],[106.9523,-7.0429],[106.9555,-7.0635],[106.9439,-7.0735],[106.936,-7.1176],[106.9632,-7.1477],[106.956,-7.1603],[106.9705,-7.1849],[106.965,-7.1894],[106.9799,-7.2263],[106.9582,-7.2572],[106.9673,-7.2657],[106.9701,-7.2838],[106.9601,-7.3078],[106.9389,-7.3137],[106.9274,-7.3272],[106.9088,-7.3239],[106.9066,-7.3449],[106.8999,-7.3379],[106.8729,-7.3546],[106.8361,-7.3539],[106.8195,-7.3602],[106.8055,-7.3808],[106.772,-7.4031],[106.7798,-7.4157],[106.7903,-7.4142],[106.7914,-7.4364],[106.6067,-7.4148],[106.5595,-7.4168],[106.5233,-7.408],[106.4903,-7.3769],[106.4439,-7.3608],[106.4242,-7.36],[106.4006,-7.3733],[106.4036,-7.3567],[106.3971,-7.3304],[106.3807,-7.3186],[106.3727,-7.3068],[106.3782,-7.2949],[106.3704,-7.28],[106.3821,-7.2714],[106.38,-7.2394],[106.3908,-7.2286],[106.3894,-7.2119],[106.3992,-7.2058],[106.3956,-7.1992],[106.4006,-7.1864],[106.4242,-7.1905],[106.4338,-7.1845],[106.44,-7.1904],[106.4606,-7.1836],[106.4652,-7.1707],[106.4489,-7.1533],[106.4577,-7.1286],[106.4663,-7.1272],[106.4843,-7.1033],[106.5111,-7.0907],[106.5293,-7.0649],[106.544,-7.056],[106.5478,-7.0286],[106.5411,-7.0175],[106.5431,-6.9856],[106.5053,-6.9633],[106.4786,-6.9636],[106.4402,-6.9526],[106.4156,-6.9639],[106.4142,-6.9761],[106.3931,-6.9766],[106.3887,-6.9341],[106.3977,-6.9267],[106.3914,-6.9],[106.4187,-6.8811],[106.4384,-6.8156],[106.4487,-6.8167],[106.4567,-6.8053],[106.4875,-6.7946],[106.4942,-6.7763],[106.5115,-6.766],[106.5256,-6.7666],[106.5253,-6.7575],[106.5451,-6.7517],[106.5735,-6.7214],[106.5832,-6.7246],[106.5941,-6.7455],[106.6314,-6.7536],[106.6675,-6.742],[106.6723,-6.7337],[106.6931,-6.7427],[106.7395,-6.7125],[106.783,-6.7539],[106.8997,-6.7852],[106.9228,-6.7806],[106.9422,-6.7597],[106.952,-6.7566],[106.96,-6.7636]]]]}},{"type":"Feature","id":"Bandung","properties":{"kabupaten_kota":"Bandung","sumber":"GADM 2.x Kabupaten Bandung (Jawa Barat)"},"geometry":{"type":"MultiPolygon","coordinates":[[[[107.59,-6.7221],[107.602,-6.7362],[107.5994,-6.756],[107.629,-6.7693],[107.6584,-6.768],[107.6816,-6.7898],[107.7048,-6.791],[107.7288,-6.8083],[107.7443,-6.8101],[107.7386,-6.8737],[107.7585,-6.8964],[107.7596,-6.9444],[107.8088,-6.9635],[107.838,-6.9669],[107.9162,-6.948],[107.9145,-6.9649],[107.8969,-6.9793],[107.9079,-6.9998],[107.909,-7.0293],[107.9309,-7.0358],[107.927,-7.0478],[107.8758,-7.0526],[107.838,-7.0657],[107.8268,-7.0881],[107.8081,-7.0981],[107.8085,-7.1349],[107.7956,-7.1518],[107.7799,-7.1585],[107.7736,-7.1536],[107.7585,-7.1574],[107.7549,-7.1696],[107.7388,-7.1678],[107.7212,-7.1951],[107.7229,-7.2119],[107.7067,-7.2275],[107.7126,-7.2492],[107.7363,-7.2676],[107.7222,-7.2887],[107.7212,-7.2954],[107.7277,-7.2947],[107.7187,-7.31],[107.6967,-7.2959],[107.6696,-7.2921],[107.6641,-7.2798],[107.6107,-7.3096],[107.6001,-7.2883],[107.5704,-7.2626],[107.5358,-7.2492],[107.4896,-7.2582],[107.463,-7.25],[107.4533,-7.2561],[107.3997,-7.256],[107.3568,-7.2365],[107.3515,-7.2282],[107.3546,-7.2185],[107.3418,-7.2058],[107.3183,-7.2007],[107.2837,-7.2078],[107.2573,-7.2032],[107.2531,-7.1969],[107.2779,-7.1673],[107.2877,-7.1321],[107.3094,-7.125],[107.3186,-7.1119],[107.3059,-7.087],[107.2638,-7.0778],[107.2492,-7.0508],[107.1886,-7.0549],[107.194,-7.0127],[107.1836,-7.0],[107.1884,-6.9914],[107.1834,-6.9779],[107.2139,-6.9505],[107.2134,-6.9396],[107.2772,-6.9216],[107.3172,-6.8878],[107.3372,-6.8801],[107.3435,-6.8546],[107.3203,-6.8498],[107.3138,-6.7961],[107.2906,-6.7756],[107.3124,-6.7314],[107.317,-6.7442],[107.308,-6.7538],[107.3106,-6.759],[107.3203,-6.7531],[107.324,-6.7656],[107.3363,-6.7635],[107.334,-6.7568],[107.3424,-6.7524],[107.3276,-6.7359],[107.3377,-6.7333],[107.3555,-6.6946],[107.3722,-6.7024],[107.3854,-6.6885],[107.3937,-6.6953],[107.4134,-6.6879],[107.426,-6.6965],[107.4484,-6.6964],[107.4827,-6.7296],[107.4994,-6.7351],[107.5116,-6.7517],[107.529,-6.7542],[107.5502,-6.7701],[107.5614,-6.7683],[107.5598,-6.7526],[107.5682,-6.7302],[107.59,-6.7221]]]]}},{"type":"Feature","id":"Tasikmalaya","properties":{"kabupaten_kota":"Tasikmalaya","sumber":"GADM 2.x Kabupaten Tasikmalaya (Jawa Barat)"},"geometry":{"type":"MultiPolygon","coordinates":[[[[108.1379,-7.041],[108.1541,-7.0653],[108.1926,-7.0713],[108.2085,-7.0869],[108.2199,-7.087],[108.2189,-7.1249],[108.2014,-7.144],[108.195,-7.1787],[108.1993,-7.2304],[108.1926,-7.2599],[108.1989,-7.2763],[108.1645,-7.274],[108.1643,-7.2913],[108.1463,-7.2927],[108.1581,-7.3174],[108.1557,-7.3336],[108.1871,-7.4408],[108.1994,-7.4467],[108.2186,-7.4316],[108.2354,-7.4361],[108.2609,-7.4316],[108.268,-7.4181],[108.2648,-7.3892],[108.2801,-7.3569],[108.2765,-7.3501],[108.289,-7.3326],[108.3075,-7.3311],[108.341,-7.3521],[108.3598,-7.3492],[108.4097,-7.3635],[108.4113,-7.3775],[108.397,-7.4077],[108.4019,-7.4203],[108.4188,-7.4218],[108.4232,-7.4296],[108.4289,-7.4849],[108.4376,-7.4909],[108.4234,-7.4967],[108.3933,-7.4773],[108.3407,-7.4916],[108.3333,-7.5033],[108.3345,-7.5523],[108.3541,-7.5725],[108.36,-7.6125],[108.3545,-7.637],[108.3625,-7.6601],[108.352,-7.6809],[108.3235,-7.6811],[108.3155,-7.6951],[108.3219,-7.7099],[108.3123,-7.7219],[108.3144,-7.7468],[108.3199,-7.7502],[108.3249,-7.7947],[108.3413,-7.8025],[108.3355,-7.8156],[108.2994,-7.8144],[108.2516,-7.8],[108.1515,-7.787],[108.1023,-7.7717],[108.0631,-7.7675],[108.0383,-7.7543],[108.0,-7.745],[107.9406,-7.7319],[107.9057,-7.7308],[107.9246,-7.6858],[107.9188,-7.6205],[107.9123,-7.6059],[107.9131,-7.5949],[107.9307,-7.5791],[107.9276,-7.5587],[107.9374,-7.5375],[107.934,-7.5073],[107.9425,-7.4807],[107.9427,-7.4545],[107.932,-7.3999],[107.9157,-7.3745],[107.8934,-7.3675],[107.8909,-7.3612],[107.9205,-7.3482],[107.934,-7.33],[107.9229,-7.31],[107.9193,-7.2842],[107.9563,-7.2756],[107.9838,-7.2491],[108.0006,-7.2452],[108.0169,-7.2319],[108.0626,-7.2222],[108.0736,-7.1957],[108.069,-7.1879],[108.0827,-7.164],[108.0696,-7.1307],[108.088,-7.1099],[108.1016,-7.1041],[108.1225,-7.1137],[108.1212,-7.0753],[108.1396,-7.0629],[108.1323,-7.0412],[108.1379,-7.041]]]]}},{"type":"Feature","id":"Cirebon","properties":{"kabupaten_kota":"Cirebon","sumber":"GADM 2.x Kabupaten Cirebon (Jawa Barat)"},"geometry":{"type":"MultiPolygon","coordinates":[[[[108.5392,-6.5157],[108.5461,-6.5347],[108.5445,-6.5931],[108.5692,-6.7083],[108.5538,-6.7329],[108.5256,-6.75],[108.5286,-6.7868],[108.5438,-6.7873],[108.5611,-6.7538],[108.5839,-6.7325],[108.5975,-6.7578],[108.6111,-6.7678],[108.6332,-6.7705],[108.6492,-6.7585],[108.6503,-6.7511],[108.6777,-6.7627],[108.6771,-6.7833],[108.6931,-6.8041],[108.7495,-6.8147],[108.7698,-6.8086],[108.8055,-6.7851],[108.8077,-6.7656],[108.7896,-6.7607],[108.8029,-6.7509],[108.8012,-6.7442],[108.8306,-6.7447],[108.8246,-6.8293],[108.7956,-6.8757],[108.7775,-6.8835],[108.755,-6.9135],[108.7633,-6.941],[108.7611,-6.9831],[108.7561,-6.9893],[108.7303,-6.9969],[108.7204,-6.9913],[108.7283,-6.9662],[108.7042,-6.9378],[108.6884,-6.9329],[108.6804,-6.9226],[108.6681,-6.9381],[108.6561,-6.9341],[108.6648,-6.9158],[108.6532,-6.9131],[108.6533,-6.9014],[108.6251,-6.9062],[108.5838,-6.8934],[108.5759,-6.8878],[108.5645,-6.8564],[108.5102,-6.8409],[108.5103,-6.7924],[108.4835,-6.7904],[108.4808,-6.7963],[108.4742,-6.7867],[108.4578,-6.7985],[108.4534,-6.7829],[108.418,-6.7855],[108.4086,-6.7941],[108.4001,-6.7757],[108.3757,-6.765],[108.3663,-6.7425],[108.3761,-6.7322],[108.3634,-6.7185],[108.3624,-6.6871],[108.3339,-6.6682],[108.3349,-6.6551],[108.321,-6.6165],[108.3357,-6.6057],[108.33,-6.5945],[108.3519,-6.5799],[108.3604,-6.558],[108.3924,-6.536],[108.4362,-6.5175],[108.4467,-6.5319],[108.4525,-6.5729],[108.4897,-6.5555],[108.4906,-6.5422],[108.498,-6.5412],[108.5125,-6.5159],[108.5392,-6.5157]]]]}},{"type":"Feature","id":"Bekasi","properties":{"kabupaten_kota":"Bekasi","sumber":"GADM 2.x Kabupaten Bekasi (Jawa Barat)"},"geometry":{"type":"MultiPolygon","coordinates":[[[[107.1007,-5.9382],[107.0868,-6.001],[107.1018,-6.0155],[107.1026,-6.0251],[107.1299,-6.0465],[107.1344,-6.0613],[107.1431,-6.058],[107.145,-6.0682],[107.1888,-6.077],[107.1912,-6.0862],[107.2159,-6.101],[107.244,-6.0998],[107.2512,-6.1137],[107.2684,-6.1123],[107.2724,-6.1282],[107.2835,-6.1275],[107.2806,-6.1341],[107.294,-6.1436],[107.2796,-6.1656],[107.2886,-6.1639],[107.2875,-6.1819],[107.2977,-6.2057],[107.2891,-6.2193],[107.2752,-6.2175],[107.2821,-6.2254],[107.2738,-6.2382],[107.2767,-6.2663],[107.2676,-6.2751],[107.2673,-6.2855],[107.2381,-6.2999],[107.2359,-6.3082],[107.2304,-6.3059],[107.22,-6.3258],[107.2269,-6.3473],[107.2143,-6.3545],[107.2083,-6.3693],[107.2194,-6.3823],[107.2233,-6.3995],[107.22,-6.4098],[107.2071,-6.418],[107.206,-6.4362],[107.2142,-6.4582],[107.2119,-6.4665],[107.2037,-6.4676],[107.1967,-6.4641],[107.1838,-6.4736],[107.1752,-6.4854],[107.1764,-6.4941],[107.0789,-6.4354],[107.0521,-6.4049],[106.9846,-6.3769],[107.0047,-6.3663],[107.0107,-6.3548],[107.0218,-6.3532],[107.0267,-6.3283],[107.04,-6.3246],[107.0457,-6.3065],[107.0445,-6.2847],[107.0312,-6.2794],[107.0188,-6.2827],[107.0241,-6.2636],[107.0425,-6.2464],[107.0443,-6.2293],[107.0326,-6.2172],[107.0358,-6.1963],[107.0122,-6.1852],[107.012,-6.1673],[106.9836,-6.165],[106.9729,-6.1742],[106.9728,-6.0911],[107.0114,-6.0803],[107.0125,-6.0747],[107.0044,-6.0731],[106.9872,-6.0511],[107.0156,-6.0336],[107.0072,-6.0194],[106.9945,-6.0258],[106.9897,-6.0103],[107.0061,-6],[107.0167,-5.97],[107.0114,-5.9475],[107.0058,-5.9408],[106.99,-5.9431],[106.9919,-5.9356],[107.0014,-5.9317],[107.0047,-5.9208],[107.0267,-5.9147],[107.0722,-5.9336],[107.1007,-5.9382]]]]}},{"type":"Feature","id":"Kota Banjar","properties":{"kabupaten_kota":"Kota Banjar","sumber":"GADM 2.x Kotamadya Banjar (Jawa Barat)"},"geometry":{"type":"MultiPolygon","coordinates":[[[[108.6541,-7.3475],[108.6492,-7.3686],[108.628,-7.3819],[108.5906,-7.385],[108.5726,-7.4212],[108.5643,-7.4267],[108.5423,-7.4054],[108.5175,-7.4191],[108.4968,-7.4111],[108.4865,-7.3945],[108.4756,-7.4037],[108.4642,-7.3827],[108.4711,-7.3563],[108.5229,-7.3535],[108.5609,-7.3132],[108.5579,-7.3308],[108.573,-7.3354],[108.5817,-7.3489],[108.6202,-7.3496],[108.6341,-7.3436],[108.6541,-7.3475]]]]}},{"type":"Feature","id":"Magelang","properties":{"kabupaten_kota":"Magelang","sumber":"GADM 2.x Kabupaten Magelang (Jawa Tengah)"},"geometry":{"type":"MultiPolygon","coordinates":[[[[110.4422,-7.4512],[110.4203,-7.4933],[110.381,-7.5102],[110.4143,-7.5186],[110.4479,-7.5431],[110.3294,-7.644],[110.3077,-7.6547],[110.2817,-7.6973],[110.2676,-7.6941],[110.2673,-7.6511],[110.2622,-7.6469],[110.2363,-7.6518],[110.2143,-7.6459],[110.2007,-7.6518],[110.192,-7.6446],[110.1543,-7.6453],[110.141,-7.65],[110.1279,-7.6344],[110.0997,-7.5722],[110.059,-7.5726],[110.06,-7.5579],[110.0454,-7.5241],[110.0544,-7.4802],[110.066,-7.4573],[110.06,-7.4342],[110.0746,-7.386],[110.1252,-7.3828],[110.1387,-7.3879],[110.1776,-7.3813],[110.1989,-7.3835],[110.219,-7.3975],[110.2251,-7.3829],[110.2515,-7.3693],[110.259,-7.3806],[110.2831,-7.382],[110.327,-7.365],[110.3341,-7.3608],[110.3297,-7.3368],[110.3379,-7.3228],[110.3534,-7.3247],[110.3794,-7.3318],[110.3849,-7.3498],[110.4006,-7.3607],[110.4197,-7.4208],[110.4422,-7.4512]]]]}},{"type":"Feature","id":"Semarang","properties":{"kabupaten_kota":"Semarang","sumber":"GADM 2.x Kabupaten Semarang (Jawa Tengah)"},"geometry":{"type":"MultiPolygon","coordinates":[[[[110.4811,-7.089],[110.5008,-7.1001],[110.5048,-7.1198],[110.5251,-7.1298],[110.5443,-7.1274],[110.5719,-7.1431],[110.5717,-7.1587],[110.5575,-7.1693],[110.55,-7.1673],[110.5425,-7.1805],[110.5805,-7.1963],[110.6053,-7.1937],[110.6138,-7.1986],[110.6161,-7.2194],[110.6346,-7.2555],[110.6213,-7.2878],[110.6036,-7.2914],[110.5992,-7.3141],[110.6136,-7.3329],[110.6361,-7.329],[110.6296,-7.3419],[110.6341,-7.3593],[110.63,-7.383],[110.6392,-7.4062],[110.6354,-7.432],[110.6228,-7.4514],[110.6243,-7.4568],[110.6394,-7.4481],[110.6453,-7.4523],[110.6315,-7.4615],[110.6566,-7.4715],[110.6601,-7.496],[110.6034,-7.4884],[110.5785,-7.465],[110.5847,-7.4625],[110.5866,-7.4448],[110.5764,-7.4324],[110.5638,-7.4376],[110.5598,-7.4462],[110.549,-7.441],[110.5397,-7.4332],[110.5164,-7.4345],[110.5006,-7.4153],[110.4805,-7.406],[110.4661,-7.4085],[110.4475,-7.431],[110.4422,-7.4512],[110.4197,-7.4208],[110.4074,-7.3915],[110.4074,-7.3753],[110.4006,-7.3607],[110.3849,-7.3498],[110.3794,-7.3318],[110.3379,-7.3228],[110.3193,-7.306],[110.3357,-7.2964],[110.2766,-7.2483],[110.2518,-7.2025],[110.252,-7.1892],[110.2625,-7.1982],[110.2775,-7.198],[110.2879,-7.1877],[110.3022,-7.1945],[110.3237,-7.1939],[110.3584,-7.1776],[110.3487,-7.1542],[110.3538,-7.1098],[110.3689,-7.1101],[110.3703,-7.1244],[110.4146,-7.1067],[110.4211,-7.121],[110.4273,-7.1195],[110.4272,-7.0975],[110.4478,-7.0897],[110.4511,-7.0796],[110.4763,-7.0824],[110.4811,-7.089]]]]}},{"type":"Feature","id":"Pekalongan","properties":{"kabupaten_kota":"Pekalongan","sumber":"GADM 2.x Kabupaten Pekalongan (Jawa Tengah)"},"geometry":{"type":"MultiPolygon","coordinates":[[[[109.6573,-6.8501],[109.649,-6.8946],[109.6365,-6.908],[109.6371,-6.9306],[109.6601,-6.9313],[109.6701,-6.9412],[109.7085,-6.939],[109.722,-6.9631],[109.7316,-7.0254],[109.7483,-7.0343],[109.7693,-7.0293],[109.7932,-7.0671],[109.7881,-7.0882],[109.8052,-7.0947],[109.8246,-7.1284],[109.8302,-7.1696],[109.8254,-7.1795],[109.7984,-7.1706],[109.7194,-7.1998],[109.6919,-7.1913],[109.6773,-7.1726],[109.6423,-7.1745],[109.6115,-7.2095],[109.5904,-7.208],[109.5415,-7.2415],[109.5216,-7.221],[109.5209,-7.1992],[109.4913,-7.1292],[109.4955,-7.109],[109.5085,-7.1044],[109.4976,-7.092],[109.4876,-7.0597],[109.485,-7.0275],[109.4953,-7.002],[109.4912,-6.9906],[109.4966,-6.9653],[109.5494,-6.9242],[109.5594,-6.9251],[109.5658,-6.8851],[109.577,-6.8789],[109.5789,-6.8532],[109.5923,-6.8456],[109.588,-6.8396],[109.6573,-6.8501]]]]}},{"type":"Feature","id":"Tegal","properties":{"kabupaten_kota":"Tegal","sumber":"GADM 2.x Kabupaten Tegal (Jawa Tengah)"},"geometry":{"type":"MultiPolygon","coordinates":[[[[109.3522,-6.8622],[109.361,-6.8811],[109.3292,-6.9267],[109.3355,-6.9597],[109.3204,-6.9733],[109.3153,-6.9879],[109.2938,-6.9946],[109.2972,-7.0024],[109.2775,-7.0527],[109.2393,-7.0758],[109.2216,-7.125],[109.1931,-7.1339],[109.1971,-7.147],[109.1918,-7.1579],[109.1999,-7.1691],[109.2051,-7.2232],[109.2162,-7.2422],[109.1936,-7.2506],[109.1802,-7.2347],[109.1535,-7.2409],[109.1178,-7.2124],[109.064,-7.1912],[109.0606,-7.1751],[109.0703,-7.1665],[109.0687,-7.1585],[109.0847,-7.1531],[109.0881,-7.1435],[109.0772,-7.1284],[109.0602,-7.1222],[109.0538,-7.1224],[109.051,-7.1329],[109.0547,-7.1442],[109.0476,-7.1539],[109.0072,-7.132],[108.9701,-7.144],[108.9572,-7.139],[108.9535,-7.1241],[108.9787,-7.1181],[108.9836,-7.1043],[108.9725,-7.1029],[108.9778,-7.0815],[108.971,-7.0589],[109.0222,-7.0447],[109.0285,-7.0374],[109.0208,-7.0231],[109.032,-7.0014],[109.0294,-6.99],[109.0692,-6.9757],[109.0712,-6.9924],[109.076,-6.9904],[109.077,-6.9438],[109.0648,-6.9244],[109.0657,-6.9016],[109.099,-6.8991],[109.1148,-6.9053],[109.1323,-6.8932],[109.1438,-6.8942],[109.1522,-6.8475],[109.1586,-6.8439],[109.1895,-6.8602],[109.2269,-6.8622],[109.2651,-6.8725],[109.3157,-6.8706],[109.3522,-6.8622]]]]}},{"type":"Feature","id":"Kediri","properties":{"kabupaten_kota":"Kediri","sumber":"GADM 2.x Kabupaten Kediri (Jawa Timur)"},"geometry":{"type":"MultiPolygon","coordinates":[[[[112.4135,-7.7679],[112.3788,-7.7833],[112.3507,-7.7648],[112.3197,-7.7763],[112.2882,-7.7698],[112.2867,-7.7761],[112.3048,-7.7996],[112.3043,-7.8301],[112.3247,-7.8748],[112.3191,-7.9089],[112.3078,-7.9323],[112.2433,-7.9546],[112.22,-7.9695],[112.2125,-7.9652],[112.1716,-7.9763],[112.1006,-7.9807],[112.0912,-7.9907],[112.0259,-7.9988],[111.9816,-7.9949],[111.9717,-8.0114],[111.9551,-8.0022],[111.9426,-7.9565],[111.9087,-7.9607],[111.8902,-7.9529],[111.8596,-7.908],[111.8287,-7.8792],[111.8013,-7.8648],[111.7941,-7.8487],[111.7951,-7.8372],[111.8136,-7.8147],[111.9286,-7.7201],[111.9546,-7.6805],[111.9797,-7.6822],[111.9872,-7.6892],[111.9897,-7.721],[111.9995,-7.7304],[112.0062,-7.7544],[112.0206,-7.7583],[112.0265,-7.731],[112.0572,-7.7248],[112.0749,-7.7009],[112.0744,-7.6786],[112.0976,-7.6374],[112.1094,-7.5945],[112.1214,-7.6066],[112.164,-7.6132],[112.2518,-7.7275],[112.2927,-7.7243],[112.3179,-7.7311],[112.3866,-7.771],[112.4135,-7.7679]]]]}},{"type":"Feature","id":"Malang","properties":{"kabupaten_kota":"Malang","sumber":"GADM 2.x Kabupaten Malang (Jawa Timur)"},"geometry":{"type":"MultiPolygon","coordinates":[[[[112.6981,-8.4294],[112.7125,-8.4342],[112.7119,-8.4564],[112.7067,-8.4642],[112.6983,-8.4633],[112.6842,-8.4528],[112.6772,-8.4553],[112.6797,-8.4419],[112.6981,-8.4294]]],[[[112.9131,-7.9559],[112.9311,-8.0176],[112.9132,-8.0354],[112.8996,-8.0636],[112.9018,-8.0745],[112.9207,-8.0944],[112.9252,-8.1128],[112.9033,-8.1893],[112.9204,-8.2451],[112.9091,-8.2696],[112.9243,-8.3078],[112.9383,-8.3117],[112.9351,-8.3328],[112.961,-8.3492],[112.9322,-8.3886],[112.9056,-8.393],[112.9078,-8.3842],[112.8983,-8.3808],[112.8931,-8.3892],[112.8992,-8.4017],[112.8717,-8.4089],[112.8656,-8.3963],[112.8472,-8.4058],[112.8431,-8.4015],[112.8511,-8.3906],[112.8453,-8.3864],[112.8478,-8.3775],[112.8397,-8.3864],[112.8319,-8.3689],[112.8217,-8.3725],[112.8161,-8.3872],[112.8197,-8.3917],[112.8103,-8.4031],[112.8072,-8.3967],[112.7931,-8.4039],[112.7833,-8.3972],[112.7826,-8.3865],[112.7703,-8.3872],[112.765,-8.4089],[112.7452,-8.4185],[112.7072,-8.4183],[112.6711,-8.4461],[112.6497,-8.4472],[112.6348,-8.431],[112.6186,-8.4339],[112.6103,-8.4217],[112.5806,-8.415],[112.5633,-8.4042],[112.5267,-8.4053],[112.5167,-8.3958],[112.5036,-8.405],[112.4714,-8.3931],[112.4411,-8.3964],[112.4208,-8.3814],[112.3717,-8.3753],[112.3637,-8.3515],[112.345,-8.3511],[112.3556,-8.3313],[112.3679,-8.3244],[112.3865,-8.2852],[112.3772,-8.2407],[112.3876,-8.2366],[112.3844,-8.2013],[112.3651,-8.185],[112.3654,-8.1711],[112.3872,-8.1624],[112.4332,-8.1584],[112.4514,-8.1399],[112.4567,-8.1186],[112.4533,-8.0566],[112.4734,-8.0141],[112.4747,-7.9625],[112.453,-7.9281],[112.4248,-7.9347],[112.409,-7.9495],[112.3713,-7.9563],[112.3538,-7.9452],[112.3078,-7.9323],[112.3191,-7.9089],[112.3247,-7.8748],[112.3043,-7.8301],[112.3048,-7.7996],[112.2867,-7.7761],[112.2882,-7.7698],[112.3197,-7.7763],[112.3507,-7.7648],[112.3788,-7.7833],[112.4174,-7.7657],[112.4367,-7.7673],[112.4452,-7.7771],[112.4811,-7.7664],[112.4907,-7.7943],[112.4916,-7.8501],[112.4805,-7.8742],[112.4807,-7.9165],[112.4721,-7.9412],[112.5553,-7.9202],[112.5649,-7.9124],[112.5843,-7.9165],[112.5827,-7.905],[112.5907,-7.8973],[112.5752,-7.8877],[112.5688,-7.8953],[112.5637,-7.8634],[112.5682,-7.837],[112.557,-7.8394],[112.5541,-7.8325],[112.5859,-7.7616],[112.6142,-7.7931],[112.6505,-7.7996],[112.6549,-7.8103],[112.734,-7.8232],[112.7399,-7.8413],[112.7596,-7.8569],[112.7625,-7.8716],[112.7798,-7.8778],[112.7882,-7.9103],[112.8087,-7.9296],[112.8381,-7.9412],[112.853,-7.9372],[112.8657,-7.9475],[112.9004,-7.9494],[112.9131,-7.9559]]]]}},{"type":"Feature","id":"Probolinggo","properties":{"kabupaten_kota":"Probolinggo","sumber":"GADM 2.x Kabupaten Probolinggo (Jawa Timur)"},"geometry":{"type":"MultiPolygon","coordinates":[[[[113.5921,-7.7149],[113.5911,-7.721],[113.5763,-7.7257],[113.5746,-7.7394],[113.5788,-7.7541],[113.5971,-7.7707],[113.6066,-7.7994],[113.5971,-7.8074],[113.6081,-7.8267],[113.6038,-7.8442],[113.6257,-7.8972],[113.6262,-7.9336],[113.6149,-7.9478],[113.6267,-7.9548],[113.6252,-7.9665],[113.6384,-7.972],[113.6182,-7.9862],[113.607,-7.9874],[113.5964,-7.9765],[113.5854,-7.9831],[113.5627,-7.9833],[113.5411,-8.0076],[113.5263,-8.0113],[113.4869,-8.001],[113.4676,-8.0265],[113.4495,-8.0181],[113.4448,-8.0236],[113.4271,-8.0099],[113.3931,-8.0009],[113.3781,-8.0202],[113.3618,-8.0282],[113.3409,-7.9437],[113.3323,-7.9455],[113.3278,-7.9386],[113.2953,-7.9267],[113.2802,-7.9289],[113.2623,-7.9013],[113.2528,-7.9094],[113.2067,-7.9035],[113.2042,-7.9285],[113.1926,-7.9435],[113.1479,-7.9795],[113.1363,-7.9795],[113.1158,-7.994],[113.1072,-7.9875],[113.0859,-7.9857],[113.0611,-8.0076],[113.0461,-8.0028],[113.0338,-7.98],[113.0062,-7.9638],[112.9921,-7.9631],[112.9693,-7.9826],[112.9453,-7.9866],[112.9297,-7.9778],[112.9257,-7.9631],[112.9131,-7.9559],[112.932,-7.9576],[112.9507,-7.9465],[112.9536,-7.9014],[112.9672,-7.8997],[113.0453,-7.8175],[113.0529,-7.7576],[113.062,-7.7527],[113.0874,-7.7027],[113.0992,-7.7028],[113.1086,-7.7217],[113.1417,-7.7267],[113.1539,-7.7406],[113.1679,-7.7394],[113.173,-7.7316],[113.1792,-7.7469],[113.1901,-7.7532],[113.1749,-7.7729],[113.1902,-7.8142],[113.2001,-7.8125],[113.2143,-7.7982],[113.2104,-7.8195],[113.2252,-7.8308],[113.234,-7.8054],[113.2424,-7.8104],[113.2382,-7.7411],[113.2464,-7.745],[113.255,-7.7406],[113.2708,-7.7758],[113.2867,-7.7831],[113.3078,-7.7677],[113.3244,-7.7758],[113.3425,-7.7719],[113.3828,-7.7369],[113.3872,-7.7431],[113.4167,-7.7336],[113.4387,-7.7338],[113.4831,-7.6997],[113.5025,-7.6989],[113.5447,-7.7131],[113.5819,-7.7086],[113.5921,-7.7149]]],[[[113.2582,-7.6759],[113.2598,-7.6804],[113.2508,-7.6812],[113.2582,-7.6759]]]]}},{"type":"Feature","id":"Pasuruan","properties":{"kabupaten_kota":"Pasuruan","sumber":"GADM 2.x Kabupaten Pasuruan (Jawa Timur)"},"geometry":{"type":"MultiPolygon","coordinates":[[[[112.8707,-7.5427],[112.8694,-7.57],[112.8581,-7.5842],[112.87,-7.5825],[112.8954,-7.6201],[112.8885,-7.6307],[112.8724,-7.6347],[112.8682,-7.6641],[112.8798,-7.6622],[112.8775,-7.6774],[112.8915,-7.6905],[112.915,-7.683],[112.9279,-7.669],[112.9391,-7.6528],[112.9378,-7.625],[112.9481,-7.6222],[112.9594,-7.6269],[112.9822,-7.6553],[112.9928,-7.6575],[113.0221,-7.6483],[113.0442,-7.6539],[113.0669,-7.673],[113.0874,-7.7027],[113.062,-7.7527],[113.0529,-7.7576],[113.0453,-7.8175],[112.9672,-7.8997],[112.9536,-7.9014],[112.9507,-7.9465],[112.932,-7.9576],[112.8572,-7.9427],[112.853,-7.9372],[112.8381,-7.9412],[112.8087,-7.9296],[112.7882,-7.9103],[112.7798,-7.8778],[112.7625,-7.8716],[112.7596,-7.8569],[112.7399,-7.8413],[112.734,-7.8232],[112.6549,-7.8103],[112.6505,-7.7996],[112.6142,-7.7931],[112.578,-7.7511],[112.5739,-7.733],[112.6232,-7.6689],[112.626,-7.6388],[112.6198,-7.6184],[112.636,-7.6156],[112.652,-7.5989],[112.6611,-7.5611],[112.6465,-7.5395],[112.7021,-7.5523],[112.7272,-7.5713],[112.7438,-7.5743],[112.7754,-7.5704],[112.8063,-7.557],[112.8319,-7.5537],[112.8403,-7.5583],[112.8447,-7.5512],[112.8707,-7.5427]]]]}},{"type":"Feature","id":"Mojokerto","properties":{"kabupaten_kota":"Mojokerto","sumber":"GADM 2.x Kabupaten Mojokerto (Jawa Timur)"},"geometry":{"type":"MultiPolygon","coordinates":[[[[112.497,-7.4079],[112.488,-7.4092],[112.4594,-7.4404],[112.4934,-7.46],[112.5842,-7.4848],[112.5918,-7.4992],[112.6323,-7.5355],[112.6465,-7.5395],[112.6611,-7.5611],[112.6461,-7.6075],[112.6198,-7.6184],[112.626,-7.6388],[112.6232,-7.6689],[112.5739,-7.733],[112.5616,-7.7383],[112.5301,-7.7356],[112.5026,-7.7619],[112.4611,-7.7694],[112.4533,-7.7769],[112.4453,-7.7418],[112.4149,-7.6806],[112.4088,-7.6515],[112.4037,-7.6448],[112.3905,-7.6505],[112.3822,-7.6427],[112.3857,-7.6132],[112.3631,-7.5473],[112.3682,-7.5263],[112.3734,-7.5246],[112.3747,-7.487],[112.4045,-7.4661],[112.4011,-7.4598],[112.3351,-7.4595],[112.331,-7.4516],[112.3501,-7.4134],[112.3427,-7.392],[112.3355,-7.3885],[112.3331,-7.3688],[112.3586,-7.3284],[112.4774,-7.3057],[112.4845,-7.3368],[112.4746,-7.3535],[112.4764,-7.3818],[112.4852,-7.4012],[112.492,-7.399],[112.497,-7.4079]]]]}},{"type":"Feature","id":"Madiun","properties":{"kabupaten_kota":"Madiun","sumber":"GADM 2.x Kabupaten Madiun (Jawa Timur)"},"geometry":{"type":"MultiPolygon","coordinates":[[[[111.8036,-7.46],[111.8177,-7.4703],[111.821,-7.4888],[111.8461,-7.5054],[111.8382,-7.5396],[111.831,-7.5476],[111.8053,-7.5426],[111.7881,-7.6008],[111.7846,-7.6444],[111.7314,-7.7298],[111.7261,-7.7748],[111.7466,-7.8004],[111.7172,-7.8121],[111.6983,-7.8096],[111.6857,-7.7873],[111.6781,-7.7874],[111.6723,-7.7718],[111.6644,-7.7684],[111.6093,-7.7818],[111.6008,-7.7785],[111.5828,-7.7963],[111.5422,-7.8041],[111.5084,-7.7977],[111.4666,-7.7778],[111.4508,-7.7789],[111.4614,-7.7227],[111.4832,-7.7037],[111.4986,-7.6994],[111.5026,-7.6878],[111.4983,-7.6745],[111.5097,-7.6585],[111.5415,-7.6579],[111.5515,-7.644],[111.5594,-7.5999],[111.5046,-7.6114],[111.5008,-7.6341],[111.5032,-7.6427],[111.5136,-7.6365],[111.5116,-7.6499],[111.4821,-7.6611],[111.4847,-7.6408],[111.4652,-7.6364],[111.45,-7.615],[111.4717,-7.6067],[111.4745,-7.5881],[111.4883,-7.5649],[111.4993,-7.5675],[111.5001,-7.5585],[111.5125,-7.5496],[111.5092,-7.5393],[111.5412,-7.5485],[111.5602,-7.5456],[111.5538,-7.5337],[111.5981,-7.4968],[111.6102,-7.4692],[111.6346,-7.463],[111.6397,-7.4528],[111.6491,-7.4497],[111.649,-7.4412],[111.6719,-7.4131],[111.7216,-7.4538],[111.7494,-7.4672],[111.7699,-7.4703],[111.8036,-7.46]]]]}},{"type":"Feature","id":"Tangerang","properties":{"kabupaten_kota":"Tangerang","sumber":"GADM 2.x Kabupaten Tangerang (Banten)"},"geometry":{"type":"MultiPolygon","coordinates":[[[[106.7245,-6.0892],[106.7002,-6.0978],[106.6751,-6.0945],[106.6326,-6.1186],[106.6142,-6.1361],[106.6175,-6.1585],[106.5848,-6.1605],[106.5529,-6.1939],[106.5571,-6.2152],[106.5936,-6.2208],[106.5956,-6.2105],[106.5983,-6.2219],[106.6279,-6.2242],[106.6467,-6.2501],[106.7516,-6.2542],[106.751,-6.2743],[106.7612,-6.2831],[106.7759,-6.3167],[106.7674,-6.3612],[106.5952,-6.3637],[106.5777,-6.3426],[106.5195,-6.326],[106.5133,-6.3288],[106.5163,-6.3333],[106.5309,-6.3383],[106.5286,-6.355],[106.4981,-6.3554],[106.4858,-6.3167],[106.4665,-6.3134],[106.4364,-6.3463],[106.4194,-6.3487],[106.4097,-6.3428],[106.3981,-6.3163],[106.401,-6.3039],[106.3883,-6.26],[106.3902,-6.2351],[106.3835,-6.2213],[106.3723,-6.2192],[106.3946,-6.1679],[106.3556,-6.1121],[106.346,-6.0753],[106.3498,-6.0625],[106.3901,-6.0353],[106.413,-6.0342],[106.4174,-6.0254],[106.4922,-6.0464],[106.5211,-6.0294],[106.535,-6.0108],[106.5697,-6.0308],[106.5858,-6.0303],[106.6119,-6.0236],[106.6383,-6.0042],[106.6553,-6.0253],[106.6792,-6.0128],[106.7132,-6.0391],[106.71,-6.0558],[106.7245,-6.0892]]]]}},{"type":"Feature","id":"Serang","properties":{"kabupaten_kota":"Serang","sumber":"GADM 2.x Kabupaten Serang (Banten)"},"geometry":{"type":"MultiPolygon","coordinates":[[[[106.1535,-5.92],[106.1693,-5.9353],[106.1536,-5.945],[106.1425,-5.9402],[106.1389,-5.9243],[106.1535,-5.92]]],[[[106.4174,-6.0254],[106.413,-6.0342],[106.3955,-6.0331],[106.3634,-6.0503],[106.3498,-6.0625],[106.346,-6.0753],[106.3556,-6.1121],[106.3946,-6.1679],[106.3723,-6.2192],[106.3835,-6.2213],[106.3902,-6.2351],[106.3883,-6.26],[106.4064,-6.3345],[106.3906,-6.3383],[106.3235,-6.3417],[106.2725,-6.3084],[106.2383,-6.311],[106.1995,-6.2964],[106.1737,-6.298],[106.1771,-6.2566],[106.1173,-6.2607],[106.0976,-6.2355],[106.0902,-6.2376],[106.0732,-6.2632],[106.029,-6.2821],[105.9994,-6.28],[105.9859,-6.2719],[105.98,-6.2505],[105.9574,-6.2534],[105.9492,-6.243],[105.9396,-6.2426],[105.9377,-6.2781],[105.9337,-6.286],[105.9283,-6.2842],[105.9205,-6.2605],[105.8893,-6.2279],[105.8799,-6.2394],[105.8267,-6.2471],[105.8319,-6.2096],[105.865,-6.1236],[105.8808,-6.1078],[105.8836,-6.0842],[105.8816,-6.0748],[105.9231,-6.0464],[105.9373,-6.0526],[105.94,-6.0681],[105.9551,-6.0587],[105.9628,-6.0442],[105.9655,-6.0549],[105.9802,-6.0452],[106.0196,-6.0488],[106.002,-6.0755],[106.0092,-6.1103],[106.0188,-6.1202],[106.029,-6.1133],[106.0357,-6.1211],[106.0485,-6.1079],[106.0652,-6.0825],[106.0681,-6.0602],[106.0828,-6.0438],[106.0867,-6.0087],[106.0548,-5.9981],[106.0535,-5.9638],[106.0411,-5.9615],[106.0272,-5.9471],[106.0274,-5.937],[106.0413,-5.9281],[106.0333,-5.8864],[106.0406,-5.8772],[106.0725,-5.8836],[106.0994,-5.9117],[106.1145,-5.9312],[106.1053,-5.9414],[106.105,-5.9644],[106.0975,-5.98],[106.1183,-6.0072],[106.1544,-6.0236],[106.1808,-6.0272],[106.2239,-6.0133],[106.2233,-6.0031],[106.2411,-5.9892],[106.2422,-5.9683],[106.2636,-5.9533],[106.3342,-5.9861],[106.3556,-5.9626],[106.3645,-5.9672],[106.3644,-5.9783],[106.3875,-5.9756],[106.4033,-6.0181],[106.4174,-6.0254]]],[[[106.2735,-5.8075],[106.29,-5.8086],[106.2941,-5.8145],[106.2837,-5.8166],[106.2611,-5.8127],[106.2735,-5.8075]]]]}},{"type":"Feature","id":"Bima","properties":{"kabupaten_kota":"Bima","sumber":"GADM 2.x Kabupaten Bima (Nusa Tenggara Barat)"},"geometry":{"type":"MultiPolygon","coordinates":[[[[119.2278,-8.6536],[119.2353,-8.6631],[119.2325,-8.6798],[119.2278,-8.6761],[119.2147,-8.6839],[119.208,-8.6731],[119.2278,-8.6536]]],[[[119.1861,-8.5653],[119.1972,-8.57],[119.1983,-8.5853],[119.1911,-8.5844],[119.1861,-8.5653]]],[[[119.045,-8.5567],[119.0558,-8.566],[119.0561,-8.5726],[119.048,-8.577],[119.0425,-8.5737],[119.045,-8.5567]]],[[[119.2759,-8.3927],[119.2756,-8.4108],[119.2825,-8.4192],[119.3142,-8.4069],[119.3169,-8.398],[119.3217,-8.4019],[119.3187,-8.4108],[119.3272,-8.4139],[119.33,-8.4242],[119.3199,-8.446],[119.3089,-8.4447],[119.3066,-8.4329],[119.2892,-8.4636],[119.2775,-8.4632],[119.2673,-8.4461],[119.2741,-8.4383],[119.2657,-8.4248],[119.2683,-8.4015],[119.2759,-8.3927]]],[[[118.7047,-8.5072],[118.7283,-8.5334],[118.7447,-8.5673],[118.7668,-8.5783],[118.8081,-8.5595],[118.8802,-8.5094],[118.9116,-8.495],[118.8829,-8.4531],[118.8497,-8.4191],[118.7734,-8.3788],[118.7628,-8.3636],[118.755,-8.3286],[118.7644,-8.3092],[118.787,-8.3015],[118.8136,-8.2811],[118.8597,-8.2894],[118.8903,-8.2844],[118.945,-8.2944],[118.9664,-8.3042],[118.9811,-8.3031],[119.0039,-8.3139],[118.989,-8.3468],[118.9944,-8.3536],[118.9908,-8.3719],[119.028,-8.4262],[119.0269,-8.4392],[119.0406,-8.4414],[119.0392,-8.4494],[119.0525,-8.4536],[119.0353,-8.4669],[119.049,-8.4789],[119.0475,-8.4972],[119.0406,-8.5046],[119.0542,-8.5109],[119.04,-8.5194],[119.0422,-8.5233],[119.0314,-8.5281],[119.0222,-8.5244],[119.0151,-8.5327],[119.0156,-8.5469],[119.0256,-8.5511],[119.0125,-8.5611],[119.0147,-8.5703],[119.0092,-8.5742],[119.0125,-8.5839],[119.0228,-8.59],[119.0247,-8.5829],[119.0308,-8.5958],[119.0369,-8.5961],[119.0325,-8.6347],[119.0367,-8.6428],[119.0547,-8.6522],[119.0792,-8.6511],[119.0989,-8.6364],[119.1292,-8.6297],[119.1275,-8.6219],[119.1167,-8.6178],[119.1088,-8.5958],[119.1303,-8.6028],[119.1467,-8.5886],[119.1481,-8.5658],[119.1536,-8.5675],[119.1642,-8.5567],[119.1722,-8.5695],[119.1611,-8.5797],[119.183,-8.5853],[119.1794,-8.5956],[119.1881,-8.6078],[119.1725,-8.6111],[119.183,-8.6211],[119.1825,-8.6339],[119.157,-8.6394],[119.1575,-8.6731],[119.1689,-8.6853],[119.1683,-8.7069],[119.1578,-8.7039],[119.1481,-8.7097],[119.1642,-8.7189],[119.1644,-8.7259],[119.1422,-8.7319],[119.1331,-8.7531],[119.1169,-8.7447],[119.1138,-8.7309],[119.1033,-8.7264],[119.0983,-8.7308],[119.1031,-8.7489],[119.0931,-8.7522],[119.0831,-8.7431],[119.065,-8.7436],[119.0359,-8.7323],[119.0164,-8.7433],[118.9858,-8.7428],[118.9721,-8.7493],[118.9537,-8.7214],[118.9087,-8.6803],[118.8822,-8.6883],[118.8754,-8.6997],[118.883,-8.7069],[118.8696,-8.722],[118.8512,-8.7248],[118.8133,-8.7042],[118.7996,-8.7089],[118.7814,-8.704],[118.7736,-8.7108],[118.7707,-8.7023],[118.758,-8.6935],[118.7303,-8.7293],[118.693,-8.7467],[118.7265,-8.7592],[118.7256,-8.7744],[118.7467,-8.7638],[118.7594,-8.768],[118.81,-8.7625],[118.8346,-8.7708],[118.8936,-8.7614],[118.9112,-8.767],[118.9203,-8.7858],[118.9356,-8.7847],[118.9389,-8.7943],[118.9504,-8.7897],[118.9461,-8.8039],[118.9549,-8.8195],[118.9444,-8.8322],[118.9039,-8.8436],[118.8981,-8.8383],[118.8644,-8.8433],[118.8546,-8.8337],[118.8431,-8.8366],[118.8444,-8.8461],[118.8367,-8.8461],[118.8158,-8.8358],[118.8025,-8.8195],[118.7833,-8.8203],[118.7594,-8.7983],[118.7492,-8.7956],[118.7449,-8.8043],[118.7281,-8.8011],[118.7231,-8.7936],[118.7017,-8.8062],[118.6398,-8.8133],[118.6016,-8.8402],[118.5731,-8.8508],[118.5594,-8.8481],[118.5063,-8.8825],[118.4955,-8.879],[118.4762,-8.8853],[118.4887,-8.8285],[118.4907,-8.7883],[118.5089,-8.7568],[118.4978,-8.7417],[118.511,-8.7296],[118.5122,-8.7069],[118.5291,-8.6757],[118.5289,-8.6365],[118.505,-8.5962],[118.5011,-8.5521],[118.5037,-8.4817],[118.5235,-8.4595],[118.5382,-8.3957],[118.5056,-8.3693],[118.4905,-8.3661],[118.4764,-8.3071],[118.4441,-8.2686],[118.4644,-8.2448],[118.4802,-8.2508],[118.4945,-8.2426],[118.5137,-8.2605],[118.5637,-8.2639],[118.5764,-8.2711],[118.585,-8.2665],[118.6317,-8.2922],[118.6393,-8.2878],[118.6494,-8.2918],[118.6834,-8.3401],[118.6958,-8.3789],[118.69,-8.39],[118.6944,-8.4028],[118.6864,-8.4178],[118.6921,-8.4306],[118.6869,-8.4594],[118.6667,-8.4853],[118.6628,-8.5128],[118.6717,-8.5189],[118.6515,-8.5456],[118.6529,-8.5502],[118.6615,-8.5402],[118.6713,-8.5403],[118.6774,-8.5154],[118.6955,-8.5153],[118.7047,-8.5072]]],[[[119.0569,-8.1267],[119.0908,-8.1336],[119.1136,-8.1569],[119.1233,-8.1997],[119.1147,-8.2247],[119.0881,-8.2514],[119.0511,-8.2622],[119.0133,-8.2483],[118.9994,-8.2287],[118.9981,-8.2036],[118.9997,-8.179],[119.0122,-8.1542],[119.0569,-8.1267]]],[[[117.7472,-8.0978],[117.7599,-8.1088],[117.7517,-8.1214],[117.7347,-8.1081],[117.7361,-8.1003],[117.7472,-8.0978]]],[[[118.3059,-8.3693],[118.2932,-8.4119],[118.2708,-8.4424],[118.2559,-8.4468],[118.2007,-8.4388],[118.167,-8.4417],[118.1349,-8.426],[118.106,-8.4003],[118.0322,-8.3685],[117.902,-8.2956],[117.8276,-8.2012],[117.7597,-8.1449],[117.7867,-8.1236],[117.8294,-8.1288],[117.8671,-8.1018],[117.8996,-8.0945],[117.9239,-8.08],[117.9433,-8.0836],[117.9588,-8.107],[117.9827,-8.1049],[118.0069,-8.0937],[118.0439,-8.1075],[118.0761,-8.0994],[118.1111,-8.1228],[118.1432,-8.1342],[118.1472,-8.2003],[118.1597,-8.2089],[118.1636,-8.2428],[118.1814,-8.2575],[118.1837,-8.2672],[118.2068,-8.2735],[118.2179,-8.284],[118.2308,-8.3294],[118.2567,-8.3497],[118.2626,-8.3361],[118.2739,-8.3339],[118.2773,-8.3416],[118.2714,-8.3583],[118.3059,-8.3693]]]]}},{"type":"Feature","id":"Kupang","properties":{"kabupaten_kota":"Kupang","sumber":"GADM 2.x Kabupaten Kupang (Nusa Tenggara Timur)"},"geometry":{"type":"MultiPolygon","coordinates":[[[[121.2753,-10.8192],[121.2836,-10.8271],[121.276,-10.8288],[121.2694,-10.8231],[121.2753,-10.8192]]],[[[121.5664,-10.5964],[121.6072,-10.6044],[121.6292,-10.5983],[121.6339,-10.603],[121.6261,-10.6192],[121.5917,-10.6325],[121.575,-10.6419],[121.5214,-10.6378],[121.5181,-10.6325],[121.5664,-10.5964]]],[[[121.9164,-10.4197],[121.9653,-10.4419],[122.0,-10.4433],[122.0064,-10.4547],[122.0081,-10.4672],[121.9936,-10.4906],[121.9972,-10.5225],[121.9864,-10.5508],[121.9569,-10.5517],[121.9192,-10.58],[121.9125,-10.5914],[121.8958,-10.5964],[121.8814,-10.615],[121.8611,-10.6239],[121.8592,-10.62],[121.8408,-10.6261],[121.8181,-10.6144],[121.7944,-10.6064],[121.75,-10.615],[121.7397,-10.603],[121.7047,-10.5917],[121.6839,-10.5753],[121.7289,-10.5486],[121.7642,-10.5358],[121.8025,-10.5092],[121.8183,-10.5078],[121.8411,-10.4875],[121.8439,-10.4522],[121.8503,-10.4433],[121.8763,-10.4278],[121.9164,-10.4197]]],[[[123.2822,-10.3075],[123.273,-10.3205],[123.2704,-10.314],[123.2822,-10.3075]]],[[[123.433,-10.2477],[123.4262,-10.239],[123.4315,-10.2323],[123.4408,-10.24],[123.433,-10.2477]]],[[[123.4531,-10.1147],[123.4652,-10.1365],[123.4687,-10.1616],[123.4782,-10.1641],[123.488,-10.1545],[123.502,-10.1586],[123.5058,-10.1781],[123.4636,-10.1948],[123.4528,-10.2056],[123.4528,-10.2176],[123.447,-10.2159],[123.4281,-10.2305],[123.4176,-10.2291],[123.4211,-10.2101],[123.3989,-10.2036],[123.3926,-10.2103],[123.3947,-10.2326],[123.4148,-10.2454],[123.4185,-10.2619],[123.4131,-10.2753],[123.421,-10.2919],[123.4189,-10.2966],[123.3959,-10.2927],[123.3998,-10.3057],[123.4152,-10.3144],[123.4029,-10.3394],[123.3826,-10.337],[123.3785,-10.311],[123.3629,-10.3051],[123.3479,-10.3059],[123.337,-10.3157],[123.3292,-10.3383],[123.3221,-10.3399],[123.3059,-10.3121],[123.3095,-10.2825],[123.3009,-10.2706],[123.3234,-10.2367],[123.3486,-10.2267],[123.3611,-10.2136],[123.3851,-10.1727],[123.396,-10.1338],[123.4531,-10.1147]]],[[[124.0931,-9.4092],[124.106,-9.4318],[124.1522,-9.4654],[124.1669,-9.4685],[124.1911,-9.4977],[124.1931,-9.5106],[124.1814,-9.5177],[124.1465,-9.484],[124.121,-9.4891],[124.1428,-9.5335],[124.1401,-9.5612],[124.1312,-9.5683],[124.1182,-9.566],[124.0883,-9.5915],[124.051,-9.6072],[124.0469,-9.6131],[124.0585,-9.6463],[124.0351,-9.6626],[124.0335,-9.6785],[124.038,-9.6953],[124.0565,-9.7206],[124.0855,-9.7282],[124.0873,-9.7376],[124.0686,-9.7602],[124.0937,-9.8119],[124.0861,-9.8297],[124.0925,-9.8823],[124.0807,-9.9161],[124.0914,-9.9724],[124.1259,-9.977],[124.1625,-10.0154],[124.1437,-10.0186],[124.1499,-10.0341],[124.1738,-10.0491],[124.2048,-10.0816],[124.1996,-10.1029],[124.2106,-10.1128],[124.2027,-10.1169],[124.2079,-10.1244],[124.204,-10.1287],[124.2169,-10.1297],[124.212,-10.1364],[124.2215,-10.144],[124.2231,-10.1594],[124.21,-10.1639],[124.1683,-10.1531],[124.1127,-10.1758],[124.1053,-10.1728],[124.0981,-10.1892],[124.0806,-10.2044],[124.0828,-10.2172],[124.0353,-10.245],[124.0172,-10.2764],[123.9594,-10.278],[123.9408,-10.2976],[123.9172,-10.297],[123.8788,-10.3175],[123.8655,-10.3328],[123.8236,-10.3426],[123.802,-10.3543],[123.7887,-10.3564],[123.7654,-10.3482],[123.7032,-10.3665],[123.6598,-10.3498],[123.6285,-10.3548],[123.612,-10.3702],[123.5956,-10.3501],[123.576,-10.3449],[123.5688,-10.3333],[123.5373,-10.3284],[123.4681,-10.3616],[123.4554,-10.3517],[123.4635,-10.3399],[123.4614,-10.3306],[123.4904,-10.2889],[123.5004,-10.2729],[123.4898,-10.2514],[123.4886,-10.2245],[123.5249,-10.2172],[123.546,-10.2261],[123.5524,-10.2565],[123.5727,-10.2423],[123.5849,-10.2534],[123.5726,-10.2947],[123.5886,-10.3069],[123.5991,-10.3029],[123.6128,-10.266],[123.6466,-10.2583],[123.6398,-10.2515],[123.6542,-10.2429],[123.6508,-10.2195],[123.6802,-10.1984],[123.6803,-10.1882],[123.6443,-10.1851],[123.6509,-10.1715],[123.6684,-10.1687],[123.6483,-10.1467],[123.6775,-10.1189],[123.6921,-10.1191],[123.7024,-10.1089],[123.7425,-10.0971],[123.7675,-10.05],[123.7641,-10.036],[123.7519,-10.029],[123.7153,-10.0251],[123.6963,-10.0108],[123.6803,-10.0205],[123.6512,-10.0101],[123.6226,-10.0203],[123.6077,-10.0455],[123.5934,-10.044],[123.5807,-10.0165],[123.5892,-9.9917],[123.5778,-9.9428],[123.5856,-9.9381],[123.5844,-9.9142],[123.6003,-9.8986],[123.6144,-9.8981],[123.6203,-9.89],[123.6362,-9.8975],[123.6486,-9.8875],[123.6686,-9.8517],[123.6636,-9.7964],[123.6403,-9.7739],[123.6792,-9.7522],[123.6836,-9.6892],[123.6706,-9.6506],[123.672,-9.6319],[123.6936,-9.6161],[123.7,-9.6033],[123.7217,-9.5917],[123.7353,-9.5656],[123.7881,-9.5404],[123.795,-9.4894],[123.8147,-9.498],[123.8297,-9.4947],[123.8475,-9.4753],[123.8717,-9.475],[123.8944,-9.4531],[123.9017,-9.4281],[123.9356,-9.4206],[123.9411,-9.3964],[123.9651,-9.384],[123.9708,-9.3644],[123.9944,-9.3417],[124.0313,-9.3446],[124.045,-9.3359],[124.0492,-9.3501],[124.0931,-9.4092]]]]}},{"type":"Feature","id":"Gorontalo","properties":{"kabupaten_kota":"Gorontalo","sumber":"GADM 2.x Kabupaten Gorontalo (Gorontalo)"},"geometry":{"type":"MultiPolygon","coordinates":[[[[122.8575,0.8997],[122.8697,0.8942],[122.8831,0.8969],[122.8933,0.8872],[122.89,0.8742],[122.898,0.8608],[122.8931,0.8528],[122.8803,0.8592],[122.8828,0.8856],[122.8767,0.8925],[122.8555,0.8939],[122.8575,0.8997]]],[[[122.7752,0.9114],[122.7785,0.8998],[122.7819,0.9037],[122.8124,0.892],[122.8068,0.8734],[122.7858,0.8767],[122.7559,0.9082],[122.7752,0.9114]]],[[[122.6631,1.0036],[122.6649,0.9928],[122.6552,0.9926],[122.6532,0.9985],[122.6631,1.0036]]],[[[123.1139,0.9253],[123.1288,0.8874],[123.1994,0.8599],[123.236,0.8324],[123.2404,0.7843],[123.2618,0.7305],[123.3245,0.6978],[123.3519,0.6631],[123.487,0.6364],[123.5188,0.5852],[123.524,0.5432],[123.5132,0.4753],[123.5155,0.4345],[123.4997,0.391],[123.4751,0.3683],[123.465,0.3272],[123.4594,0.3372],[123.4345,0.3159],[123.3586,0.3133],[123.3454,0.3059],[123.268,0.3221],[123.2276,0.3488],[123.2158,0.3727],[123.195,0.393],[123.1619,0.3994],[123.1447,0.4156],[123.1463,0.4229],[123.1378,0.4251],[123.1217,0.4564],[123.0867,0.4797],[123.0621,0.5093],[123.0499,0.5024],[123.0472,0.4901],[123.0371,0.4975],[123.0274,0.4915],[123.0188,0.4964],[123.0107,0.489],[122.9997,0.4947],[122.9892,0.4847],[122.9619,0.4928],[122.9269,0.4861],[122.9028,0.4928],[122.8881,0.485],[122.8275,0.4956],[122.8147,0.4886],[122.7867,0.4944],[122.7703,0.4833],[122.7428,0.4806],[122.7378,0.4858],[122.7006,0.4808],[122.6917,0.4739],[122.685,0.5036],[122.6475,0.515],[122.6531,0.485],[122.6433,0.4761],[122.6356,0.4856],[122.6244,0.4864],[122.6078,0.5909],[122.6141,0.5967],[122.5971,0.6451],[122.5413,0.7086],[122.5071,0.7365],[122.4944,0.7608],[122.4601,0.7817],[122.4355,0.7853],[122.4387,0.8775],[122.3989,0.8854],[122.274,0.8385],[122.1796,0.8276],[122.1461,0.8329],[122.0584,0.8811],[122.0173,0.9042],[121.9812,0.9372],[122.026,0.9414],[122.0495,0.9701],[122.1164,0.9857],[122.1717,1.0104],[122.2121,1.0168],[122.2219,1.0253],[122.2286,1.0128],[122.2214,1.0],[122.2311,0.9922],[122.2383,0.9961],[122.2411,1.01],[122.2531,1.0017],[122.2636,1.0125],[122.2825,1.0047],[122.3139,1.0053],[122.3161,1.0167],[122.3306,1.0219],[122.3336,1.0408],[122.3383,1.0269],[122.3603,1.0081],[122.3623,0.9958],[122.3736,0.9944],[122.3889,1.0028],[122.3931,1.0136],[122.4109,0.9942],[122.4353,0.9942],[122.4448,1.0003],[122.4397,1.0222],[122.4522,1.0319],[122.4875,0.9914],[122.5392,0.9697],[122.5522,0.9708],[122.5594,0.9608],[122.5967,0.9536],[122.6103,0.9447],[122.6242,0.9642],[122.6383,0.9433],[122.6489,0.9486],[122.6639,0.9353],[122.6881,0.8953],[122.7206,0.8867],[122.7132,0.8678],[122.7207,0.8669],[122.7378,0.8806],[122.7636,0.8625],[122.7714,0.8794],[122.8033,0.8472],[122.7972,0.8347],[122.8167,0.8311],[122.8253,0.8372],[122.8311,0.8189],[122.8372,0.8233],[122.8482,0.8012],[122.8572,0.8086],[122.8608,0.8281],[122.8703,0.8254],[122.8978,0.8514],[122.9206,0.86],[122.9308,0.885],[122.9475,0.895],[122.9458,0.9128],[122.9678,0.9375],[122.9458,0.9378],[122.9399,0.9441],[122.9386,0.9581],[122.9447,0.9644],[122.9861,0.9683],[123.001,0.9557],[122.9956,0.9462],[123.01,0.9453],[123.0214,0.9325],[123.0489,0.9386],[123.0587,0.9195],[123.0648,0.9224],[123.0674,0.9173],[123.0737,0.917],[123.0831,0.9304],[123.08,0.9175],[123.089,0.9066],[123.0977,0.9205],[123.0915,0.925],[123.095,0.9305],[123.1139,0.9253]]]]}}]}